{
    "layers": {
        "place": { "minzoom": 4, "maxzoom": 14 },
        "place_detail": { "minzoom": 14, "maxzoom": 14, "write_to": "place"},
        "poi": { "minzoom": 12, "maxzoom": 14 },
        "poi_detail": { "minzoom": 14, "maxzoom": 14, "write_to": "poi"},
        "housenumber": { "minzoom": 14, "maxzoom": 14 },
        "waterway": { "minzoom": 8, "maxzoom": 14 },
        "transportation": { "minzoom": 8, "maxzoom": 14, "simplify_below": 13, "simplify_ratio": 2.0 },
        "transportation_name": { "minzoom": 8, "maxzoom": 14 },
        "transportation_name_detail": { "minzoom": 14, "maxzoom": 14, "write_to": "transportation_name" },
        "building": { "minzoom": 13, "maxzoom": 14 },
        "water": { "minzoom": 8, "maxzoom": 14 },
        "water_name": { "minzoom": 8, "maxzoom": 14 },
        "water_name_detail": { "minzoom": 14, "maxzoom": 14, "write_to": "water_name" },
        "aeroway": { "minzoom": 11, "maxzoom": 14 },
        "park": { "minzoom": 11, "maxzoom": 14 },
        "landuse": { "minzoom": 11, "maxzoom": 14 },
        "landcover": { "minzoom": 11, "maxzoom": 14 },
        "mountain_peak": { "minzoom": 11, "maxzoom": 14 },
        "sea": {
            "minzoom": 4, "maxzoom": 14,
            "source": "../mappatches/coast.shp",
            "simplify_below": 13, "simplify_level": 0.0003,
            "write_to": "water"
        }
    },
    "settings": {
        "minzoom": 8,
        "maxzoom": 14,
        "basezoom": 14,
        "include_ids": false,
        "name": "Tilemaker to OpenTileMaps schema",
        "version": "0.1",
        "description": "Tile config based on opentilemap schema",
        "compress": "gzip",
        "metadata": {
            "json": { "vector_layers": [
                { "id": "water", "description": "", "fields": {"class":"String"}},
                { "id": "waterway", "description": "", "fields": {
                    "name:mt": "String",
                    "name:pt": "String",
                    "name:az": "String",
                    "name:ka": "String",
                    "name:rm": "String",
                    "name:ko": "String",
                    "name:kn": "String",
                    "name:ar": "String",
                    "name:cs": "String",
                    "name:kk": "String",
                    "name_de": "String",
                    "name:ro": "String",
                    "name:it": "String",
                    "name_int": "String",
                    "name:ru": "String",
                    "name:pl": "String",
                    "name:ca": "String",
                    "name:lv": "String",
                    "name:bg": "String",
                    "name:cy": "String",
                    "name:fi": "String",
                    "name:he": "String",
                    "name:da": "String",
                    "name:de": "String",
                    "name:tr": "String",
                    "name:fr": "String",
                    "name:mk": "String",
                    "name:nonlatin": "String",
                    "name:fy": "String",
                    "name:be": "String",
                    "name:zh": "String",
                    "name:sr": "String",
                    "name:sl": "String",
                    "name:nl": "String",
                    "name:ja": "String",
                    "name:lt": "String",
                    "name:no": "String",
                    "brunnel": "String",
                    "name:ko_rm": "String",
                    "name:ja_rm": "String",
                    "name:eo": "String",
                    "name:br": "String",
                    "name:bs": "String",
                    "name:lb": "String",
                    "name:la": "String",
                    "name:sk": "String",
                    "name:uk": "String",
                    "name:hy": "String",
                    "name:sv": "String",
                    "name_en": "String",
                    "name:hu": "String",
                    "name:hr": "String",
                    "class": "String",
                    "name:sq": "String",
                    "name:el": "String",
                    "name:ga": "String",
                    "name:en": "String",
                    "name": "String",
                    "name:gd": "String",
                    "name:ja_kana": "String",
                    "name:is": "String",
                    "name:th": "String",
                    "name:latin": "String",
                    "name:sr-Latn": "String",
                    "name:et": "String",
                    "name:es": "String"
                }},
                { "id": "landcover", "description": "", "fields": {
                    "class": "String",
                    "subclass": "String"
                }},
                { "id": "landuse", "description": "", "fields": {"class": "String"}},
                { "id": "mountain_peak", "description": "mountain_peak", "fields": {
                    "name:mt": "String",
                    "name:pt": "String",
                    "name:az": "String",
                    "name:ka": "String",
                    "name:rm": "String",
                    "name:ko": "String",
                    "name:kn": "String",
                    "name:ar": "String",
                    "name:cs": "String",
                    "rank": "Number",
                    "name_de": "String",
                    "name:ro": "String",
                    "name:it": "String",
                    "name_int": "String",
                    "name:lv": "String",
                    "name:pl": "String",
                    "name:de": "String",
                    "name:ca": "String",
                    "name:bg": "String",
                    "name:cy": "String",
                    "name:fi": "String",
                    "name:he": "String",
                    "name:da": "String",
                    "ele": "Number",
                    "name:tr": "String",
                    "name:fr": "String",
                    "name:mk": "String",
                    "name:nonlatin": "String",
                    "name:fy": "String",
                    "name:be": "String",
                    "name:zh": "String",
                    "name:sl": "String",
                    "name:nl": "String",
                    "name:ja": "String",
                    "name:lt": "String",
                    "name:no": "String",
                    "name:kk": "String",
                    "name:ko_rm": "String",
                    "name:ja_rm": "String",
                    "name:eo": "String",
                    "name:br": "String",
                    "name:bs": "String",
                    "name:lb": "String",
                    "name:la": "String",
                    "name:sk": "String",
                    "name:uk": "String",
                    "name:hy": "String",
                    "name:ru": "String",
                    "name:sv": "String",
                    "name_en": "String",
                    "name:hu": "String",
                    "name:hr": "String",
                    "name:sr": "String",
                    "name:sq": "String",
                    "name:el": "String",
                    "name:ga": "String",
                    "name:en": "String",
                    "name": "String",
                    "name:gd": "String",
                    "ele_ft": "Number",
                    "name:ja_kana": "String",
                    "name:is": "String",
                    "osm_id": "Number",
                    "name:th": "String",
                    "name:latin": "String",
                    "name:sr-Latn": "String",
                    "name:et": "String",
                    "name:es": "String"
                }},
                { "id": "park", "description": "", "fields": {"class":"String"}},
                { "id": "aeroway",     "description": "",     "fields": {"class":"String","ref": "String"}},
                { "id": "transportation",     "description": "",     "fields": {
                    "layer": "Number",
                    "service": "String",
                    "level": "Number",
                    "brunnel": "String",
                    "indoor": "Number",
                    "ramp": "Number",
                    "subclass": "String",
                    "oneway": "Number",
                    "class": "String"
                }},
                { "id": "transportation_name",     "description": "",     "fields": {
                    "name:mt": "String",
                    "name:pt": "String",
                    "name:az": "String",
                    "name:ka": "String",
                    "name:rm": "String",
                    "name:ko": "String",
                    "name:kn": "String",
                    "name:ar": "String",
                    "name:cs": "String",
                    "layer": "Number",
                    "name_de": "String",
                    "name:ro": "String",
                    "name:it": "String",
                    "name_int": "String",
                    "name:ru": "String",
                    "name:pl": "String",
                    "name:ca": "String",
                    "name:lv": "String",
                    "name:bg": "String",
                    "name:cy": "String",
                    "name:fi": "String",
                    "name:he": "String",
                    "name:da": "String",
                    "subclass": "String",
                    "name:de": "String",
                    "name:tr": "String",
                    "name:fr": "String",
                    "name:mk": "String",
                    "name:sl": "String",
                    "name:nonlatin": "String",
                    "name:fy": "String",
                    "name:be": "String",
                    "name:zh": "String",
                    "name:sr": "String",
                    "indoor": "Number",
                    "name:nl": "String",
                    "name:ja": "String",
                    "name:lt": "String",
                    "name:no": "String",
                    "name:kk": "String",
                    "name:ko_rm": "String",
                    "name:ja_rm": "String",
                    "name:eo": "String",
                    "name:br": "String",
                    "name:bs": "String",
                    "name:lb": "String",
                    "name:la": "String",
                    "name:sk": "String",
                    "name:uk": "String",
                    "name:hy": "String",
                    "name:sv": "String",
                    "name_en": "String",
                    "name:hu": "String",
                    "name:hr": "String",
                    "class": "String",
                    "name:sq": "String",
                    "network": "String",
                    "name:el": "String",
                    "name:ga": "String",
                    "name:en": "String",
                    "name": "String",
                    "name:gd": "String",
                    "ref": "String",
                    "name:ja_kana": "String",
                    "level": "Number",
                    "ref_length": "Number",
                    "name:is": "String",
                    "name:th": "String",
                    "name:latin": "String",
                    "name:sr-Latn": "String",
                    "name:et": "String",
                    "name:es": "String"
                }},
                { "id": "building", "description": "", "fields": {
                    "render_min_height": "Number",
                    "render_height": "Number"
                }},
                { "id": "water_name",     "description": "", "fields": {
                    "name:mt": "String",
                    "name:pt": "String",
                    "name:az": "String",
                    "name:ka": "String",
                    "name:rm": "String",
                    "name:ko": "String",
                    "name:kn": "String",
                    "name:ar": "String",
                    "name:cs": "String",
                    "name_de": "String",
                    "name:ro": "String",
                    "name:it": "String",
                    "name_int": "String",
                    "name:ru": "String",
                    "name:pl": "String",
                    "name:ca": "String",
                    "name:lv": "String",
                    "name:bg": "String",
                    "name:cy": "String",
                    "name:fi": "String",
                    "name:he": "String",
                    "name:da": "String",
                    "name:de": "String",
                    "name:tr": "String",
                    "name:fr": "String",
                    "name:mk": "String",
                    "name:nonlatin": "String",
                    "name:fy": "String",
                    "name:be": "String",
                    "name:zh": "String",
                    "name:sr": "String",
                    "name:sl": "String",
                    "name:nl": "String",
                    "name:ja": "String",
                    "name:lt": "String",
                    "name:no": "String",
                    "name:kk": "String",
                    "name:ko_rm": "String",
                    "name:ja_rm": "String",
                    "name:eo": "String",
                    "name:br": "String",
                    "name:bs": "String",
                    "name:lb": "String",
                    "name:la": "String",
                    "name:sk": "String",
                    "name:uk": "String",
                    "name:hy": "String",
                    "name:sv": "String",
                    "name_en": "String",
                    "name:hu": "String",
                    "name:hr": "String",
                    "class": "String",
                    "name:sq": "String",
                    "name:el": "String",
                    "name:ga": "String",
                    "name:en": "String",
                    "name": "String",
                    "name:gd": "String",
                    "name:ja_kana": "String",
                    "name:is": "String",
                    "name:th": "String",
                    "name:latin": "String",
                    "name:sr-Latn": "String",
                    "name:et": "String",
                    "name:es": "String"
                }},
                { "id": "place", "description": "", "fields": {
                    "name:mt": "String",
                    "name:pt": "String",
                    "name:az": "String",
                    "name:ka": "String",
                    "name:rm": "String",
                    "name:ko": "String",
                    "name:kn": "String",
                    "name:ar": "String",
                    "name:cs": "String",
                    "rank": "Number",
                    "name_de": "String",
                    "name:ro": "String",
                    "name:it": "String",
                    "name_int": "String",
                    "name:ru": "String",
                    "name:pl": "String",
                    "name:ca": "String",
                    "name:lv": "String",
                    "name:bg": "String",
                    "name:cy": "String",
                    "name:hr": "String",
                    "name:fi": "String",
                    "name:he": "String",
                    "name:da": "String",
                    "name:de": "String",
                    "name:tr": "String",
                    "name:fr": "String",
                    "name:mk": "String",
                    "name:nonlatin": "String",
                    "name:fy": "String",
                    "name:be": "String",
                    "name:zh": "String",
                    "name:sr": "String",
                    "name:sl": "String",
                    "name:nl": "String",
                    "name:ja": "String",
                    "name:ko_rm": "String",
                    "name:no": "String",
                    "name:kk": "String",
                    "capital": "Number",
                    "name:ja_rm": "String",
                    "name:eo": "String",
                    "name:br": "String",
                    "name:bs": "String",
                    "name:lb": "String",
                    "name:la": "String",
                    "name:sk": "String",
                    "name:uk": "String",
                    "name:hy": "String",
                    "name:sv": "String",
                    "name_en": "String",
                    "name:hu": "String",
                    "name:lt": "String",
                    "class": "String",
                    "name:sq": "String",
                    "name:el": "String",
                    "name:ga": "String",
                    "name:en": "String",
                    "name": "String",
                    "name:gd": "String",
                    "iso_a2": "String",
                    "name:ja_kana": "String",
                    "name:is": "String",
                    "name:th": "String",
                    "name:latin": "String",
                    "name:sr-Latn": "String",
                    "name:et": "String",
                    "name:es": "String"
                }},
                { "id": "housenumber", "description": "housenumber", "fields": {"housenumber": "String"}},
                { "id": "poi", "description": "", "fields": {
                    "name:mt": "String",
                    "name:pt": "String",
                    "name:az": "String",
                    "name:ka": "String",
                    "name:rm": "String",
                    "name:ko": "String",
                    "name:kn": "String",
                    "name:ar": "String",
                    "name:cs": "String",
                    "rank": "Number",
                    "name_de": "String",
                    "name:ro": "String",
                    "name:it": "String",
                    "name_int": "String",
                    "name:ru": "String",
                    "name:pl": "String",
                    "name:ca": "String",
                    "name:lv": "String",
                    "name:bg": "String",
                    "name:cy": "String",
                    "name:fi": "String",
                    "name:he": "String",
                    "name:da": "String",
                    "subclass": "String",
                    "name:de": "String",
                    "name:tr": "String",
                    "name:fr": "String",
                    "name:mk": "String",
                    "name:nonlatin": "String",
                    "name:fy": "String",
                    "name:be": "String",
                    "name:zh": "String",
                    "name:sr": "String",
                    "name:sl": "String",
                    "name:nl": "String",
                    "name:ja": "String",
                    "name:lt": "String",
                    "name:no": "String",
                    "name:kk": "String",
                    "name:ko_rm": "String",
                    "name:ja_rm": "String",
                    "name:eo": "String",
                    "name:br": "String",
                    "name:bs": "String",
                    "name:lb": "String",
                    "name:la": "String",
                    "name:sk": "String",
                    "name:uk": "String",
                    "name:hy": "String",
                    "name:sv": "String",
                    "name_en": "String",
                    "name:hu": "String",
                    "name:hr": "String",
                    "class": "String",
                    "name:sq": "String",
                    "name:el": "String",
                    "name:ga": "String",
                    "name:en": "String",
                    "name": "String",
                    "name:gd": "String",
                    "name:ja_kana": "String",
                    "name:is": "String",
                    "name:th": "String",
                    "name:es": "String",
                    "name:latin": "String",
                    "name:sr-Latn": "String",
                    "name:et": "String",
                    "agg_stop": "Number"
                }}
            ] }
        }
    }
}
